     3.02           NAVIGATION DATA     M (Mixed)           RINEX VERSION / TYPE
BCEmerge            congo               20130508 065656 GMT PGM / RUN BY / DATE 
Merged GPS/GLO/GAL/BDS/QZS/SBAS navigation file             COMMENT 
based on CONGO and MGEX tracking data                       COMMENT 
DLR: O. Montenbruck;  TUM: P. Steigenberger                 COMMENT 
GAUT  0.0000000000e+00 0.000000000e+00  86400 1716 1716   0 TIME SYSTEM CORR    
GLGP -3.2875686884e-07 0.000000000e+00  86400 1721 1721   0 TIME SYSTEM CORR    
GLUT -1.6577541828e-07 0.000000000e+00  86400 1721 1721   0 TIME SYSTEM CORR    
GPGA -6.3577317633e-07-6.061817714e-13 306000 1685 1685   0 TIME SYSTEM CORR    
GPUT  0.0000000000e+00-2.664535259e-15 405504 1721 1721   0 TIME SYSTEM CORR    
QZUT -1.1612428352e-08 1.065814104e-14 381600 1721 1721   0 TIME SYSTEM CORR    
    16                                                      LEAP SECONDS        
                                                            END OF HEADER       
G01 2013 01 01 02 00 00 2.907030284405e-04 2.160049916711e-12 0.000000000000e+00
     3.300000000000e+01 2.290625000000e+01 4.421612749348e-09 2.544287066855e+00
     1.270323991776e-06 1.527787651867e-03 9.326264262199e-06 5.153710906982e+03
     1.800000000000e+05-7.450580596924e-09 1.166498004638e+00-3.539025783539e-08
     9.598596219603e-01 1.991250000000e+02 5.024212716341e-01-7.934616222900e-09
     4.850202030383e-10 0.000000000000e+00 1.721000000000e+03 0.000000000000e+00
     0.000000000000e+00 0.000000000000e+00 8.381903171539e-09 3.300000000000e+01
     1.728000000000e+05                                                         
G01 2013 01 01 04 00 00 2.907188609242e-04 2.160049916711e-12 0.000000000000e+00
     3.400000000000e+01 1.431250000000e+01 4.422684222550e-09-2.688665018056e+00
     8.251518011093e-07 1.529364264570e-03 9.765848517418e-06 5.153707933426e+03
     1.872000000000e+05 1.303851604462e-08 1.166441266824e+00 2.421438694000e-08
     9.598632938847e-01 1.917187500000e+02 5.023462868421e-01-7.874970881289e-09
     4.639478967207e-10 0.000000000000e+00 1.721000000000e+03 0.000000000000e+00
     0.000000000000e+00 0.000000000000e+00 8.381903171539e-09 3.400000000000e+01
     1.800000000000e+05                                                         
G02 2013 01 01 02 00 00 4.132920876145e-04 1.364242052659e-12 0.000000000000e+00
     3.200000000000e+01 3.281250000000e+01 4.757698177226e-09-2.745614259615e+00
     1.627951860428e-06 1.180972403381e-02 1.031160354614e-05 5.153588487625e+03
     1.800000000000e+05-7.450580596924e-08 1.148030760249e+00-1.192092895508e-07
     9.383943464054e-01 1.676875000000e+02-2.699199006919e+00-7.961403052965e-09
     6.093110945385e-10 0.000000000000e+00 1.721000000000e+03 0.000000000000e+00
     0.000000000000e+00 0.000000000000e+00-1.769512891769e-08 3.200000000000e+01
     1.728000000000e+05                                                         
G02 2013 01 01 04 00 00 4.133018665016e-04 1.364242052659e-12 0.000000000000e+00
     3.300000000000e+01 2.634375000000e+01 4.885560646068e-09-1.695585282653e+00
     1.307576894760e-06 1.181137328967e-02 9.385868906975e-06 5.153582988739e+03
     1.872000000000e+05-1.117587089539e-08 1.147973596725e+00-2.440065145493e-07
     9.383986766430e-01 1.882812500000e+02-2.698991562209e+00-7.982832517017e-09
     5.514515415988e-10 0.000000000000e+00 1.721000000000e+03 0.000000000000e+00
     0.000000000000e+00 0.000000000000e+00-1.769512891769e-08 3.300000000000e+01
     1.800000000000e+05                                                         
R01 2013 01 01 00 15 00-1.750094816089e-04 0.000000000000e+00 1.728000000000e+05
     8.450493652344e+03 1.381167411804e+00 0.000000000000e+00 0.000000000000e+00
    -1.874471679688e+04-1.543292045593e+00 1.862645149231e-09 1.000000000000e+00
     1.510979541016e+04-2.684219360352e+00-9.313225746155e-10 0.000000000000e+00
R01 2013 01 01 00 45 00-1.750094816089e-04 0.000000000000e+00 1.746000000000e+05
     1.032079345703e+04 7.040367126465e-01 0.000000000000e+00 0.000000000000e+00
    -2.120131738281e+04-1.142783164978e+00 1.862645149231e-09 1.000000000000e+00
     9.757022460938e+03-3.224708557129e+00 0.000000000000e+00 0.000000000000e+00
R02 2013 01 01 00 15 00-3.537535667419e-04-1.818989403546e-12 1.728000000000e+05
    -7.231270996094e+03 2.204895019531e+00 0.000000000000e+00 0.000000000000e+00
    -8.523518554688e+03-2.232992172241e+00 0.000000000000e+00-4.000000000000e+00
     2.292787548828e+04-1.328620910645e-01-2.793967723846e-09 0.000000000000e+00
R02 2013 01 01 00 45 00-3.537572920322e-04-1.818989403546e-12 1.746000000000e+05
    -3.627707031250e+03 1.771393775940e+00 0.000000000000e+00 0.000000000000e+00
    -1.273327636719e+04-2.401859283447e+00 0.000000000000e+00-4.000000000000e+00
     2.180566308594e+04-1.105895042419e+00-1.862645149231e-09 0.000000000000e+00
J01 2013 01 01 01 00 00 3.498396836221e-04-2.046363078989e-12-2.775557561563e-17
     3.800000000000e+01 5.995312500000e+02 2.652253334140e-09 2.778233350719e+00
     1.789070665836e-05 7.494205713738e-02 7.150694727898e-06 6.493217412949e+03
     1.764000000000e+05 1.117587089539e-08 1.470278479480e+00-2.980232238770e-08
     7.087935451248e-01-1.213125000000e+02-1.569374663005e+00-2.798688005161e-09
     6.353836091348e-10 0.000000000000e+00 1.721000000000e+03 0.000000000000e+00
     0.000000000000e+00 1.000000000000e+00-4.190951585770e-09 3.800000000000e+01
     1.728000000000e+05                                                         
J01 2013 01 01 01 15 12 3.498387522995e-04-1.818989403546e-12-2.775557561563e-17
     3.900000000000e+01 5.960000000000e+02 2.680825952876e-09 2.844747355489e+00
     1.783296465874e-05 7.494255842175e-02 7.053837180138e-06 6.493216318130e+03
     1.773120000000e+05 4.656612873077e-08 1.470275789174e+00-3.725290298462e-08
     7.087941361437e-01-1.154062500000e+02-1.569376586743e+00-2.807259790781e-09
     6.410981328820e-10 0.000000000000e+00 1.721000000000e+03 0.000000000000e+00
     0.000000000000e+00 1.000000000000e+00-4.190951585770e-09 3.900000000000e+01
     1.737000000000e+05                                                         
